{"type": "FeatureCollection", "features": [ {"type": "Feature", "properties": {"norad_id": 32110, "name": "FENGYUN 1C DEB", "group": "fengyun-1c-debris", "lat": 67.8704271363026, "lon": -10.652055244029624, "alt_km": 782.4717893184006, "timestamp": "2025-12-02T15:49:07.475732+00:00", "meta": {"OBJECT_NAME": "FENGYUN 1C DEB", "OBJECT_ID": "1999-025CRC", "EPOCH": "2025-12-01T17:32:54.319200", "MEAN_MOTION": 14.28765204, "ECCENTRICITY": 0.00331622, "INCLINATION": 99.5435, "RA_OF_ASC_NODE": 143.8968, "ARG_OF_PERICENTER": 38.8421, "MEAN_ANOMALY": 340.5842, "EPHEMERIS_TYPE": 0, "CLASSIFICATION_TYPE": "U", "NORAD_CAT_ID": 32110, "ELEMENT_SET_NO": 999, "REV_AT_EPOCH": 64231, "BSTAR": 0.0015982579, "MEAN_MOTION_DOT": 3.999e-05, "MEAN_MOTION_DDOT": 0}, "tle": {"line1": "1 32110U 99025CRC 25335.73118425  .00003999  00000+0  15983-2 0  9998", "line2": "2 32110  99.5435 143.8968 0033162  38.8421 340.5842 14.28765204642315"}}, "geometry": {"type": "Point", "coordinates": [-10.652055244029624, 67.8704271363026]}}, {"type": "Feature", "properties": {"norad_id": 32111, "name": "FENGYUN 1C DEB", "group": "fengyun-1c-debris", "lat": 13.88025371692791, "lon": -25.438209603459608, "alt_km": 851.8766334024122, "timestamp": "2025-12-02T15:49:07.475743+00:00", "meta": {"OBJECT_NAME": "FENGYUN 1C DEB", "OBJECT_ID": "1999-025CRD", "EPOCH": "2025-12-01T18:46:27.916320", "MEAN_MOTION": 14.31523108, "ECCENTRICITY": 0.01192533, "INCLINATION": 98.4435, "RA_OF_ASC_NODE": 335.8125, "ARG_OF_PERICENTER": 237.5229, "MEAN_ANOMALY": 299.5029, "EPHEMERIS_TYPE": 0, "CLASSIFICATION_TYPE": "U", "NORAD_CAT_ID": 32111, "ELEMENT_SET_NO": 999, "REV_AT_EPOCH": 95874, "BSTAR": 0.00024661709, "MEAN_MOTION_DOT": 6.64e-06, "MEAN_MOTION_DDOT": 0}, "tle": {"line1": "1 32111U 99025CRD 25335.78226755  .00000664  00000+0  24662-3 0  9991", "line2": "2 32111  98.4435 335.8125 0119253 237.5229 299.5029 14.31523108958748"}}, "geometry": {"type": "Point", "coordinates": [-25.438209603459608, 13.88025371692791]}}, {"type": "Feature", "properties": {"norad_id": 32113, "name": "FENGYUN 1C DEB", "group": "fengyun-1c-debris", "lat": 26.61030433392087, "lon": -163.78338662894618, "alt_km": 941.959394146018, "timestamp": "2025-12-02T15:49:07.475753+00:00", "meta": {"OBJECT_NAME": "FENGYUN 1C DEB", "OBJECT_ID": "1999-025CRF", "EPOCH": "2025-12-01T20:07:13.938528", "MEAN_MOTION": 13.9450729, "ECCENTRICITY": 0.02376048, "INCLINATION": 99.0283, "RA_OF_ASC_NODE": 10.8448, "ARG_OF_PERICENTER": 256.5436, "MEAN_ANOMALY": 100.9147, "EPHEMERIS_TYPE": 0, "CLASSIFICATION_TYPE": "U", "NORAD_CAT_ID": 32113, "ELEMENT_SET_NO": 999, "REV_AT_EPOCH": 62734, "BSTAR": 0.00090775002, "MEAN_MOTION_DOT": 1.486e-05, "MEAN_MOTION_DDOT": 0}, "tle": {"line1": "1 32113U 99025CRF 25335.83835577  .00001486  00000+0  90775-3 0  9998", "line2": "2 32113  99.0283  10.8448 0237604 256.5436 100.9147 13.94507290627345"}}, "geometry": {"type": "Point", "coordinates": [-163.78338662894618, 26.61030433392087]}}, {"type": "Feature", "properties": {"norad_id": 32114, "name": "FENGYUN 1C DEB", "group": "fengyun-1c-debris", "lat": -5.142459782552113, "lon": -89.49283228540578, "alt_km": 675.4666315105505, "timestamp": "2025-12-02T15:49:07.475763+00:00", "meta": {"OBJECT_NAME": "FENGYUN 1C DEB", "OBJECT_ID": "1999-025CRG", "EPOCH": "2025-11-30T01:10:09.442560", "MEAN_MOTION": 14.76162507, "ECCENTRICITY": 0.00446183, "INCLINATION": 99.9271, "RA_OF_ASC_NODE": 88.2086, "ARG_OF_PERICENTER": 23.884, "MEAN_ANOMALY": 336.442, "EPHEMERIS_TYPE": 0, "CLASSIFICATION_TYPE": "U", "NORAD_CAT_ID": 32114, "ELEMENT_SET_NO": 999, "REV_AT_EPOCH": 65542, "BSTAR": 0.0027760533, "MEAN_MOTION_DOT": 0.00019481, "MEAN_MOTION_DDOT": 0}, "tle": {"line1": "1 32114U 99025CRG 25334.04872040  .00019481  00000+0  27761-2 0  9995", "line2": "2 32114  99.9271  88.2086 0044618  23.8840 336.4420 14.76162507655423"}}, "geometry": {"type": "Point", "coordinates": [-89.49283228540578, -5.142459782552113]}}, {"type": "Feature", "properties": {"norad_id": 32117, "name": "FENGYUN 1C DEB", "group": "fengyun-1c-debris", "lat": 63.889730390878434, "lon": -139.7830592071119, "alt_km": 786.0303026245001, "timestamp": "2025-12-02T15:49:07.475774+00:00", "meta": {"OBJECT_NAME": "FENGYUN 1C DEB", "OBJECT_ID": "1999-025CRK", "EPOCH": "2025-12-01T02:10:47.284320", "MEAN_MOTION": 14.23859162, "ECCENTRICITY": 0.00279616, "INCLINATION": 98.6131, "RA_OF_ASC_NODE": 20.6672, "ARG_OF_PERICENTER": 124.8257, "MEAN_ANOMALY": 235.5559, "EPHEMERIS_TYPE": 0, "CLASSIFICATION_TYPE": "U", "NORAD_CAT_ID": 32117, "ELEMENT_SET_NO": 999, "REV_AT_EPOCH": 94631, "BSTAR": 0.0010989786, "MEAN_MOTION_DOT": 2.484e-05, "MEAN_MOTION_DDOT": 0}, "tle": {"line1": "1 32117U 99025CRK 25335.09082505  .00002484  00000+0  10990-2 0  9994", "line2": "2 32117  98.6131  20.6672 0027961 124.8257 235.5559 14.23859162946319"}}, "geometry": {"type": "Point", "coordinates": [-139.7830592071119, 63.889730390878434]}}, {"type": "Feature", "properties": {"norad_id": 32119, "name": "FENGYUN 1C DEB", "group": "fengyun-1c-debris", "lat": -3.326701198081571, "lon": 17.73020110148257, "alt_km": 901.6774979584616, "timestamp": "2025-12-02T15:49:07.475784+00:00", "meta": {"OBJECT_NAME": "FENGYUN 1C DEB", "OBJECT_ID": "1999-025CRM", "EPOCH": "2025-11-29T08:12:48.883680", "MEAN_MOTION": 14.02765845, "ECCENTRICITY": 0.00848751, "INCLINATION": 99.8866, "RA_OF_ASC_NODE": 194.7134, "ARG_OF_PERICENTER": 88.4065, "MEAN_ANOMALY": 272.6818, "EPHEMERIS_TYPE": 0, "CLASSIFICATION_TYPE": "U", "NORAD_CAT_ID": 32119, "ELEMENT_SET_NO": 999, "REV_AT_EPOCH": 93540, "BSTAR": 0.00094664843, "MEAN_MOTION_DOT": 1.46e-05, "MEAN_MOTION_DDOT": 0}, "tle": {"line1": "1 32119U 99025CRM 25333.34223245  .00001460  00000+0  94665-3 0  9995", "line2": "2 32119  99.8866 194.7134 0084875  88.4065 272.6818 14.02765845935403"}}, "geometry": {"type": "Point", "coordinates": [17.73020110148257, -3.326701198081571]}}, {"type": "Feature", "properties": {"norad_id": 32123, "name": "FENGYUN 1C DEB", "group": "fengyun-1c-debris", "lat": 48.140879527820594, "lon": -26.228692614164945, "alt_km": 794.3569317344172, "timestamp": "2025-12-02T15:49:07.475794+00:00", "meta": {"OBJECT_NAME": "FENGYUN 1C DEB", "OBJECT_ID": "1999-025CRR", "EPOCH": "2025-12-01T05:32:04.500096", "MEAN_MOTION": 14.61405659, "ECCENTRICITY": 0.0160116, "INCLINATION": 98.9412, "RA_OF_ASC_NODE": 142.1073, "ARG_OF_PERICENTER": 328.5977, "MEAN_ANOMALY": 210.8722, "EPHEMERIS_TYPE": 0, "CLASSIFICATION_TYPE": "U", "NORAD_CAT_ID": 32123, "ELEMENT_SET_NO": 999, "REV_AT_EPOCH": 71206, "BSTAR": 0.00024625, "MEAN_MOTION_DOT": 1.395e-05, "MEAN_MOTION_DDOT": 0}, "tle": {"line1": "1 32123U 99025CRR 25335.23060764  .00001395  00000+0  24625-3 0  9991", "line2": "2 32123  98.9412 142.1073 0160116 328.5977 210.8722 14.61405659712069"}}, "geometry": {"type": "Point", "coordinates": [-26.228692614164945, 48.140879527820594]}}, {"type": "Feature", "properties": {"norad_id": 32125, "name": "FENGYUN 1C DEB", "group": "fengyun-1c-debris", "lat": -18.22446130727386, "lon": -41.090351132662505, "alt_km": 546.8749383114709, "timestamp": "2025-12-02T15:49:07.475805+00:00", "meta": {"OBJECT_NAME": "FENGYUN 1C DEB", "OBJECT_ID": "1999-025CRT", "EPOCH": "2025-11-30T16:29:46.563072", "MEAN_MOTION": 14.69027096, "ECCENTRICITY": 0.01775541, "INCLINATION": 99.061, "RA_OF_ASC_NODE": 313.7121, "ARG_OF_PERICENTER": 0.429, "MEAN_ANOMALY": 359.7033, "EPHEMERIS_TYPE": 0, "CLASSIFICATION_TYPE": "U", "NORAD_CAT_ID": 32125, "ELEMENT_SET_NO": 999, "REV_AT_EPOCH": 70346, "BSTAR": 0.0033542642, "MEAN_MOTION_DOT": 0.00025065, "MEAN_MOTION_DDOT": 0}, "tle": {"line1": "1 32125U 99025CRT 25334.68734448  .00025065  00000+0  33543-2 0  9996", "line2": "2 32125  99.0610 313.7121 0177554   0.4290 359.7033 14.69027096703466"}}, "geometry": {"type": "Point", "coordinates": [-41.090351132662505, -18.22446130727386]}}, {"type": "Feature", "properties": {"norad_id": 32126, "name": "FENGYUN 1C DEB", "group": "fengyun-1c-debris", "lat": -55.6686402980163, "lon": 19.872046676687187, "alt_km": 902.6991445289332, "timestamp": "2025-12-02T15:49:07.475815+00:00", "meta": {"OBJECT_NAME": "FENGYUN 1C DEB", "OBJECT_ID": "1999-025CRU", "EPOCH": "2025-11-29T21:08:43.407744", "MEAN_MOTION": 13.56758285, "ECCENTRICITY": 0.02819555, "INCLINATION": 99.1098, "RA_OF_ASC_NODE": 210.8851, "ARG_OF_PERICENTER": 288.4841, "MEAN_ANOMALY": 68.585, "EPHEMERIS_TYPE": 0, "CLASSIFICATION_TYPE": "U", "NORAD_CAT_ID": 32126, "ELEMENT_SET_NO": 999, "REV_AT_EPOCH": 61540, "BSTAR": 0.0013221034, "MEAN_MOTION_DOT": 1.169e-05, "MEAN_MOTION_DDOT": 0}, "tle": {"line1": "1 32126U 99025CRU 25333.88105796  .00001169  00000+0  13221-2 0  9996", "line2": "2 32126  99.1098 210.8851 0281955 288.4841  68.5850 13.56758285615400"}}, "geometry": {"type": "Point", "coordinates": [19.872046676687187, -55.6686402980163]}}, {"type": "Feature", "properties": {"norad_id": 32128, "name": "FENGYUN 1C DEB", "group": "fengyun-1c-debris", "lat": -79.74379173256882, "lon": 141.54264476793875, "alt_km": 640.590608156891, "timestamp": "2025-12-02T15:49:07.475826+00:00", "meta": {"OBJECT_NAME": "FENGYUN 1C DEB", "OBJECT_ID": "1999-025CRW", "EPOCH": "2025-12-01T09:15:15.155712", "MEAN_MOTION": 13.94160303, "ECCENTRICITY": 0.0396836, "INCLINATION": 99.0324, "RA_OF_ASC_NODE": 21.8264, "ARG_OF_PERICENTER": 254.0294, "MEAN_ANOMALY": 101.6818, "EPHEMERIS_TYPE": 0, "CLASSIFICATION_TYPE": "U", "NORAD_CAT_ID": 32128, "ELEMENT_SET_NO": 999, "REV_AT_EPOCH": 62827, "BSTAR": 0.00061431573, "MEAN_MOTION_DOT": 1.518e-05, "MEAN_MOTION_DDOT": 0}, "tle": {"line1": "1 32128U 99025CRW 25335.38559208  .00001518  00000+0  61432-3 0  9992", "line2": "2 32128  99.0324  21.8264 0396836 254.0294 101.6818 13.94160303628279"}}, "geometry": {"type": "Point", "coordinates": [141.54264476793875, -79.74379173256882]}}]}